[{"id":"31573","name":"GLOBALSTAR M069","tle1":"1 31573U 07020C   26175.89544647 -.00000084  00000+0  83358-4 0  9999","tle2":"2 31573  52.0017 230.3095 0002160 164.9101   5.8422 12.23471370879745"},{"id":"31574","name":"GLOBALSTAR M072","tle1":"1 31574U 07020D   26176.02880431 -.00000088  00000+0 -56335-4 0  9990","tle2":"2 31574  51.9936  79.3688 0001506 351.2980 108.7419 11.91658399875918"},{"id":"32265","name":"GLOBALSTAR M066","tle1":"1 32265U 07048C   26175.86400301 -.00000138  00000+0 -36895-3 0  9997","tle2":"2 32265  51.9607  35.8749 0005602  60.4643 313.0805 12.30386866861176"},{"id":"37188","name":"GLOBALSTAR M079","tle1":"1 37188U 10054A   26176.06397353 -.00000108  00000+0 -26045-4 0  9996","tle2":"2 37188  52.0044  84.6917 0000880  41.4004  62.1003 12.62266186723541"},{"id":"37189","name":"GLOBALSTAR M074","tle1":"1 37189U 10054B   26175.47194622 -.00000111  00000+0 -40180-4 0  9995","tle2":"2 37189  52.0021  85.7575 0000699  62.2896 109.9343 12.62268391724073"},{"id":"37190","name":"GLOBALSTAR M076","tle1":"1 37190U 10054C   26175.95334735 -.00000112  00000+0 -44798-4 0  9991","tle2":"2 37190  52.0028  84.4959 0000894  57.4176  23.3269 12.62261903723851"},{"id":"37191","name":"GLOBALSTAR M077","tle1":"1 37191U 10054D   26176.24410177 -.00000056  00000+0  39343-3 0  9995","tle2":"2 37191  51.9922 158.8450 0002604 187.2661 185.5935 11.67547923722085"},{"id":"37192","name":"GLOBALSTAR M075","tle1":"1 37192U 10054E   26176.04539192 -.00000112  00000+0 -46935-4 0  9993","tle2":"2 37192  51.9942 126.2657 0000349  31.8594  47.4282 12.62267339722930"},{"id":"37193","name":"GLOBALSTAR M073","tle1":"1 37193U 10054F   26175.97942399 -.00000097  00000+0  35299-4 0  9994","tle2":"2 37193  52.0075  40.5733 0001046  63.6293  74.1864 12.62266598724916"},{"id":"37739","name":"GLOBALSTAR M083","tle1":"1 37739U 11033A   26176.23715493 -.00000079  00000+0  13672-3 0  9991","tle2":"2 37739  51.9878 348.0059 0000961  79.6878  91.2731 12.62263504693966"},{"id":"37740","name":"GLOBALSTAR M088","tle1":"1 37740U 11033B   26175.54302073 -.00000096  00000+0  45650-4 0  9993","tle2":"2 37740  52.0207 256.5676 0000549 137.7828 235.8313 12.62268925689427"},{"id":"37741","name":"GLOBALSTAR M091","tle1":"1 37741U 11033C   26176.28312110 -.00000093  00000+0  62240-4 0  9990","tle2":"2 37741  51.9975 217.2686 0000107 172.0893 267.1713 12.62264020690300"},{"id":"37742","name":"GLOBALSTAR M085","tle1":"1 37742U 11033D   26176.25526101 -.00000088  00000+0  89504-4 0  9991","tle2":"2 37742  52.0098 168.6506 0000291 348.6823  23.9856 12.62264159690812"},{"id":"37743","name":"GLOBALSTAR M081","tle1":"1 37743U 11033E   26176.28175708 -.00000085  00000+0  10437-3 0  9993","tle2":"2 37743  51.9929 170.9971 0000202  37.3446 335.4820 12.62265173690966"},{"id":"37744","name":"GLOBALSTAR M089","tle1":"1 37744U 11033F   26176.18285414 -.00000098  00000+0  31434-4 0  9994","tle2":"2 37744  51.9917 125.4549 0000452  77.9696  26.1481 12.62267366691799"},{"id":"38040","name":"GLOBALSTAR M084","tle1":"1 38040U 11080A   26176.21079574 -.00000094  00000+0  52655-4 0  9992","tle2":"2 38040  52.0028 352.8554 0001102  98.7293  72.3476 12.62267622669778"},{"id":"38041","name":"GLOBALSTAR M080","tle1":"1 38041U 11080B   26176.26141801 -.00000089  00000+0  82268-4 0  9998","tle2":"2 38041  52.0082 354.4223 0000417  77.3246  93.9911 12.62269634669902"},{"id":"38042","name":"GLOBALSTAR M082","tle1":"1 38042U 11080C   26175.16821816 -.00000097  00000+0  38092-4 0  9993","tle2":"2 38042  52.0092 313.2519 0000497 104.5113  66.5940 12.62263716670476"},{"id":"38043","name":"GLOBALSTAR M092","tle1":"1 38043U 11080D   26176.00641271 -.00000104  00000+0 -36146-5 0  9992","tle2":"2 38043  52.0097  41.0978 0000802  74.5102  66.4364 12.62267049669033"},{"id":"38044","name":"GLOBALSTAR M090","tle1":"1 38044U 11080E   26175.63514646 -.00000105  00000+0 -91842-5 0  9991","tle2":"2 38044  52.0136 305.7887 0000742 100.7376 272.3465 12.62269062670652"},{"id":"38045","name":"GLOBALSTAR M086","tle1":"1 38045U 11080F   26175.84948810 -.00000087  00000+0  92198-4 0  9991","tle2":"2 38045  51.9916 305.0541 0001694  80.4727  88.6038 12.62287026670629"},{"id":"39072","name":"GLOBALSTAR M097","tle1":"1 39072U 13005A   26175.84381477 -.00000086  00000+0  99004-4 0  9993","tle2":"2 39072  52.0018 220.0302 0000150 110.0202 250.0681 12.62271079617878"},{"id":"39073","name":"GLOBALSTAR M093","tle1":"1 39073U 13005B   26176.29206457 -.00000083  00000+0  11540-3 0  9993","tle2":"2 39073  52.0076 212.0142 0000195  45.7098 314.3785 12.62266054617889"},{"id":"39074","name":"GLOBALSTAR M094","tle1":"1 39074U 13005C   26176.13357114 -.00000109  00000+0 -31284-4 0  9992","tle2":"2 39074  51.9942 126.6037 0000609  23.9631 336.1264 12.62268505619478"},{"id":"39075","name":"GLOBALSTAR M096","tle1":"1 39075U 13005D   26176.30543912 -.00000112  00000+0 -45624-4 0  9992","tle2":"2 39075  52.0052 174.8893 0000239 356.8696   3.2169 12.62265642618414"},{"id":"39076","name":"GLOBALSTAR M078","tle1":"1 39076U 13005E   26175.48665115 -.00000031  00000+0  40510-3 0  9998","tle2":"2 39076  51.9873 261.3827 0000473 259.0147 101.0667 12.62258969616937"},{"id":"39077","name":"GLOBALSTAR M095","tle1":"1 39077U 13005F   26175.43419255 -.00000100  00000+0  22471-4 0  9990","tle2":"2 39077  52.0080 259.1567 0000098 118.9231 241.1646 12.62263550616784"},{"id":"52888","name":"GLOBALSTAR M087","tle1":"1 52888U 22064A   26175.92250106 -.00000100  00000+0  22385-4 0  9996","tle2":"2 52888  52.0010  38.9029 0000869  54.2379 305.8568 12.62269218192113"}]